{
  "type": "FeatureCollection",
  "features": [
    {
      "type": "Feature",
      "properties": {
        "norad_id": 34589,
        "name": "COSMOS 2251 DEB",
        "group": "cosmos-2251-debris",
        "lat": 6.359953748971689,
        "lon": -132.90116702239766,
        "alt_km": 1128.572092844115,
        "timestamp": "2025-12-16T21:38:57.569998+00:00",
        "meta_object_name": "COSMOS 2251 DEB",
        "meta_object_id": "1993-036WB",
        "meta_epoch": "2025-12-15T21:07:13.255392",
        "meta_mean_motion": 13.86055381,
        "meta_eccentricity": 0.02519969,
        "meta_inclination": 73.9257,
        "meta_ra_of_asc_node": 50.6812,
        "meta_arg_of_pericenter": 353.4006,
        "meta_mean_anomaly": 122.126,
        "meta_ephemeris_type": 0,
        "meta_classification_type": "U",
        "meta_norad_cat_id": 34589,
        "meta_element_set_no": 999,
        "meta_rev_at_epoch": 84755,
        "meta_bstar": 0.00028237935,
        "meta_mean_motion_dot": 3.93e-06,
        "meta_mean_motion_ddot": 0,
        "tle_line1": "1 34589U 93036WB  25349.88001453  .00000393  00000+0  28238-3 0  9992",
        "tle_line2": "2 34589  73.9257  50.6812 0251996 353.4006 122.1260 13.86055381847552"
      },
      "geometry": {
        "type": "Point",
        "coordinates": [
          -132.90116702239766,
          6.359953748971689
        ]
      }
    },
    {
      "type": "Feature",
      "properties": {
        "norad_id": 34590,
        "name": "COSMOS 2251 DEB",
        "group": "cosmos-2251-debris",
        "lat": 66.27417586613026,
        "lon": 94.0627382462686,
        "alt_km": 659.263090615581,
        "timestamp": "2025-12-16T21:38:57.570008+00:00",
        "meta_object_name": "COSMOS 2251 DEB",
        "meta_object_id": "1993-036WC",
        "meta_epoch": "2025-12-16T08:38:38.666400",
        "meta_mean_motion": 14.54830103,
        "meta_eccentricity": 0.00679681,
        "meta_inclination": 74.044,
        "meta_ra_of_asc_node": 315.7016,
        "meta_arg_of_pericenter": 84.2273,
        "meta_mean_anomaly": 66.298,
        "meta_ephemeris_type": 0,
        "meta_classification_type": "U",
        "meta_norad_cat_id": 34590,
        "meta_element_set_no": 999,
        "meta_rev_at_epoch": 89173,
        "meta_bstar": 0.0001292882,
        "meta_mean_motion_dot": 5.42e-06,
        "meta_mean_motion_ddot": 0,
        "tle_line1": "1 34590U 93036WC  25350.36016975  .00000542  00000+0  12929-3 0  9990",
        "tle_line2": "2 34590  74.0440 315.7016 0067968  84.2273  66.2980 14.54830103891735"
      },
      "geometry": {
        "type": "Point",
        "coordinates": [
          94.0627382462686,
          66.27417586613026
        ]
      }
    },
    {
      "type": "Feature",
      "properties": {
        "norad_id": 34609,
        "name": "COSMOS 2251 DEB",
        "group": "cosmos-2251-debris",
        "lat": 68.97309228721414,
        "lon": -130.31031957292623,
        "alt_km": 897.9214212628522,
        "timestamp": "2025-12-16T21:38:57.570018+00:00",
        "meta_object_name": "COSMOS 2251 DEB",
        "meta_object_id": "1993-036WE",
        "meta_epoch": "2025-12-15T18:52:52.677120",
        "meta_mean_motion": 14.21805593,
        "meta_eccentricity": 0.01453201,
        "meta_inclination": 73.7332,
        "meta_ra_of_asc_node": 101.1529,
        "meta_arg_of_pericenter": 320.1561,
        "meta_mean_anomaly": 195.7348,
        "meta_ephemeris_type": 0,
        "meta_classification_type": "U",
        "meta_norad_cat_id": 34609,
        "meta_element_set_no": 999,
        "meta_rev_at_epoch": 86675,
        "meta_bstar": 0.00056746146,
        "meta_mean_motion_dot": 1.362e-05,
        "meta_mean_motion_ddot": 0,
        "tle_line1": "1 34609U 93036WE  25349.78672080  .00001362  00000+0  56746-3 0  9996",
        "tle_line2": "2 34609  73.7332 101.1529 0145320 320.1561 195.7348 14.21805593866758"
      },
      "geometry": {
        "type": "Point",
        "coordinates": [
          -130.31031957292623,
          68.97309228721414
        ]
      }
    },
    {
      "type": "Feature",
      "properties": {
        "norad_id": 34610,
        "name": "COSMOS 2251 DEB",
        "group": "cosmos-2251-debris",
        "lat": 45.70843219764133,
        "lon": -87.8971422483888,
        "alt_km": 744.8114144614983,
        "timestamp": "2025-12-16T21:38:57.570029+00:00",
        "meta_object_name": "COSMOS 2251 DEB",
        "meta_object_id": "1993-036WF",
        "meta_epoch": "2025-12-16T04:21:58.580928",
        "meta_mean_motion": 14.07079874,
        "meta_eccentricity": 0.0180318,
        "meta_inclination": 74.018,
        "meta_ra_of_asc_node": 256.282,
        "meta_arg_of_pericenter": 26.115,
        "meta_mean_anomaly": 334.8944,
        "meta_ephemeris_type": 0,
        "meta_classification_type": "U",
        "meta_norad_cat_id": 34610,
        "meta_element_set_no": 999,
        "meta_rev_at_epoch": 85608,
        "meta_bstar": 0.0012065746,
        "meta_mean_motion_dot": 2.315e-05,
        "meta_mean_motion_ddot": 0,
        "tle_line1": "1 34610U 93036WF  25350.18192802  .00002315  00000+0  12066-2 0  9998",
        "tle_line2": "2 34610  74.0180 256.2820 0180318  26.1150 334.8944 14.07079874856086"
      },
      "geometry": {
        "type": "Point",
        "coordinates": [
          -87.8971422483888,
          45.70843219764133
        ]
      }
    },
    {
      "type": "Feature",
      "properties": {
        "norad_id": 34611,
        "name": "COSMOS 2251 DEB",
        "group": "cosmos-2251-debris",
        "lat": -40.62196467139127,
        "lon": 78.71289952917552,
        "alt_km": 684.2678350251517,
        "timestamp": "2025-12-16T21:38:57.570039+00:00",
        "meta_object_name": "COSMOS 2251 DEB",
        "meta_object_id": "1993-036WG",
        "meta_epoch": "2025-12-16T07:16:51.949920",
        "meta_mean_motion": 14.69576182,
        "meta_eccentricity": 0.00223206,
        "meta_inclination": 74.0531,
        "meta_ra_of_asc_node": 94.0686,
        "meta_arg_of_pericenter": 134.4061,
        "meta_mean_anomaly": 257.1097,
        "meta_ephemeris_type": 0,
        "meta_classification_type": "U",
        "meta_norad_cat_id": 34611,
        "meta_element_set_no": 999,
        "meta_rev_at_epoch": 88443,
        "meta_bstar": 0.0010855199,
        "meta_mean_motion_dot": 6.447e-05,
        "meta_mean_motion_ddot": 0,
        "tle_line1": "1 34611U 93036WG  25350.30337905  .00006447  00000+0  10855-2 0  9992",
        "tle_line2": "2 34611  74.0531  94.0686 0022320 134.4061 257.1097 14.69576182884435"
      },
      "geometry": {
        "type": "Point",
        "coordinates": [
          78.71289952917552,
          -40.62196467139127
        ]
      }
    },
    {
      "type": "Feature",
      "properties": {
        "norad_id": 34613,
        "name": "COSMOS 2251 DEB",
        "group": "cosmos-2251-debris",
        "lat": 56.68258377743515,
        "lon": 65.04682306812636,
        "alt_km": 722.3145755705282,
        "timestamp": "2025-12-16T21:38:57.570049+00:00",
        "meta_object_name": "COSMOS 2251 DEB",
        "meta_object_id": "1993-036WJ",
        "meta_epoch": "2025-12-16T00:58:31.243296",
        "meta_mean_motion": 14.26454619,
        "meta_eccentricity": 0.01102473,
        "meta_inclination": 73.9638,
        "meta_ra_of_asc_node": 272.5587,
        "meta_arg_of_pericenter": 103.5153,
        "meta_mean_anomaly": 273.8209,
        "meta_ephemeris_type": 0,
        "meta_classification_type": "U",
        "meta_norad_cat_id": 34613,
        "meta_element_set_no": 999,
        "meta_rev_at_epoch": 86510,
        "meta_bstar": 0.00095440148,
        "meta_mean_motion_dot": 2.425e-05,
        "meta_mean_motion_ddot": 0,
        "tle_line1": "1 34613U 93036WJ  25350.04063939  .00002425  00000+0  95440-3 0  9994",
        "tle_line2": "2 34613  73.9638 272.5587 0110247 103.5153 273.8209 14.26454619865107"
      },
      "geometry": {
        "type": "Point",
        "coordinates": [
          65.04682306812636,
          56.68258377743515
        ]
      }
    },
    {
      "type": "Feature",
      "properties": {
        "norad_id": 34614,
        "name": "COSMOS 2251 DEB",
        "group": "cosmos-2251-debris",
        "lat": -70.32541484605946,
        "lon": -149.63930117338532,
        "alt_km": 791.4624889390243,
        "timestamp": "2025-12-16T21:38:57.570059+00:00",
        "meta_object_name": "COSMOS 2251 DEB",
        "meta_object_id": "1993-036WK",
        "meta_epoch": "2025-12-16T00:21:28.707840",
        "meta_mean_motion": 14.17601251,
        "meta_eccentricity": 0.0198196,
        "meta_inclination": 73.8837,
        "meta_ra_of_asc_node": 337.994,
        "meta_arg_of_pericenter": 331.3985,
        "meta_mean_anomaly": 83.6306,
        "meta_ephemeris_type": 0,
        "meta_classification_type": "U",
        "meta_norad_cat_id": 34614,
        "meta_element_set_no": 999,
        "meta_rev_at_epoch": 84813,
        "meta_bstar": 0.0047337499,
        "meta_mean_motion_dot": 0.00011666,
        "meta_mean_motion_ddot": 0,
        "tle_line1": "1 34614U 93036WK  25350.01491560  .00011666  00000+0  47337-2 0  9995",
        "tle_line2": "2 34614  73.8837 337.9940 0198196 331.3985  83.6306 14.17601251848135"
      },
      "geometry": {
        "type": "Point",
        "coordinates": [
          -149.63930117338532,
          -70.32541484605946
        ]
      }
    }
  ]
}